GLOBALSTAR M035 [-]     
1 25851U 99037A   24073.03441993 -.00000101  00000+0 -14217-2 0  9998
2 25851  51.9998   3.3672 0013520 316.5279 124.9100 11.04528733 45302
GLOBALSTAR M032 [-]     
1 25852U 99037B   24072.70643171 -.00000088  00000+0 -66655-3 0  9992
2 25852  51.9922 221.1395 0010615 109.9607 250.2336 11.19049905 83124
GLOBALSTAR M051 [-]     
1 25853U 99037C   24072.94873861 -.00000082  00000+0 -25497-3 0  9993
2 25853  51.9789  73.5594 0001666 108.7441 251.3550 11.42194533 79685
GLOBALSTAR M030 [-]     
1 25854U 99037D   24072.85176266 -.00000078  00000+0 -73491-4 0  9992
2 25854  51.9856 269.2390 0002944 310.9797  49.0764 11.55085451 96736
GLOBALSTAR M048 [-]     
1 25872U 99041A   24072.19163146 -.00000050  00000+0  54134-3 0  9998
2 25872  51.9410 352.5586 0013701 103.4832  45.7463 11.33843691 72572
GLOBALSTAR M043 [-]     
1 25874U 99041C   24072.72550284 -.00000047  00000+0  61384-3 0  9993
2 25874  51.9389  80.5403 0012846 245.8030 286.9840 11.25675394 70902
GLOBALSTAR M028 [-]     
1 25875U 99041D   24072.82524876 -.00000028  00000+0  46715-3 0  9993
2 25875  51.9614 128.7276 0063953 149.3636 211.0982 12.50551869132456
